NORAD_CAT_ID,OBJECT_NAME,OBJECT_TYPE,EPOCH,MEAN_MOTION,ECCENTRICITY,INCLINATION,RA_OF_ASC_NODE,ARG_OF_PERICENTER,MEAN_ANOMALY,BSTAR,MEAN_MOTION_DOT,MEAN_MOTION_DDOT,TLE_LINE0,TLE_LINE1,TLE_LINE2,SEMIMAJOR_AXIS,PERIOD,APOGEE,PERIGEE,DECAYED
51974.0,STARLINK-3672,PAYLOAD,2023-10-05 13:17:36,15.06392126,0.0001213,53.055,48.9007,75.0133,285.099,8.294e-05,9.54e-06,0.0,0 STARLINK-3672,1 51974U 22025U   23278.55389224  .00000954  00000-0  82940-4 0  9992,2 51974  53.0550  48.9007 0001213  75.0133 285.0990 15.06392126 87351,6925.373,95.593,548.078,546.398,0.0
51974.0,STARLINK-3672,PAYLOAD,2023-10-05 16:28:40,15.06406685,0.0001394,53.0557,48.302,91.2922,268.8227,0.00012878,1.638e-05,0.0,0 STARLINK-3672,1 51974U 22025U   23278.68657695  .00001638  00000-0  12878-3 0  9998,2 51974  53.0557  48.3020 0001394  91.2922 268.8227 15.06406685 87373,6925.328,95.592,548.158,546.228,0.0
51974.0,STARLINK-3672,PAYLOAD,2023-10-06 08:24:04,15.06393301,0.0001487,53.0567,45.3258,80.7387,279.3771,-6.027e-05,-1.179e-05,0.0,0 STARLINK-3672,1 51974U 22025U   23279.35005558 -.00001179  00000-0 -60270-4 0  9990,2 51974  53.0567  45.3258 0001487  80.7387 279.3771 15.06393301 88568,6925.369,95.593,548.264,546.204,0.0
51974.0,STARLINK-3672,PAYLOAD,2023-10-06 13:10:41,15.06393622,0.0001392,53.0552,44.4324,90.4301,269.6848,-1.5955e-05,-5.19e-06,0.0,0 STARLINK-3672,1 51974U 22025U   23279.54909598 -.00000519  00000-0 -15955-4 0  9995,2 51974  53.0552  44.4324 0001392  90.4301 269.6848 15.06393622 87501,6925.368,95.593,548.197,546.269,0.0
51974.0,STARLINK-3672,PAYLOAD,2023-10-06 14:46:14,15.06397563,0.0001493,53.0565,44.1338,91.6019,268.514,1.1077e-05,-1.17e-06,0.0,0 STARLINK-3672,1 51974U 22025U   23279.61544151 -.00000117  00000-0  11077-4 0  9997,2 51974  53.0565  44.1338 0001493  91.6019 268.5140 15.06397563 87510,6925.356,95.592,548.255,546.187,0.0
51974.0,STARLINK-3672,PAYLOAD,2023-10-07 13:03:47,15.06400549,0.0001356,53.0556,39.9636,97.2681,262.8463,0.00025455,3.512e-05,0.0,0 STARLINK-3672,1 51974U 22025U   23280.54429838  .00003512  00000-0  25455-3 0  9990,2 51974  53.0556  39.9636 0001356  97.2681 262.8463 15.06400549 87657,6925.347,95.592,548.151,546.273,0.0
51974.0,STARLINK-3672,PAYLOAD,2023-10-07 17:50:24,15.06408041,0.0001664,53.056,39.0687,97.187,262.9309,0.00022908,3.133e-05,0.0,0 STARLINK-3672,1 51974U 22025U   23280.74333444  .00003133  00000-0  22908-3 0  9998,2 51974  53.0560  39.0687 0001664  97.1870 262.9309 15.06408041 88779,6925.324,95.592,548.341,546.037,0.0
51974.0,STARLINK-3672,PAYLOAD,2023-10-08 08:10:16,15.06394458,0.0001365,53.0556,36.3894,90.6686,269.446,6.0525e-05,6.2e-06,0.0,0 STARLINK-3672,1 51974U 22025U   23281.34046429  .00000620  00000-0  60525-4 0  9995,2 51974  53.0556  36.3894 0001365  90.6686 269.4460 15.06394458 88861,6925.366,95.592,548.176,546.285,0.0
51974.0,STARLINK-3672,PAYLOAD,2023-10-08 14:32:25,15.06404678,0.0001305,53.0556,35.1986,93.142,266.9718,0.00021911,2.984e-05,0.0,0 STARLINK-3672,1 51974U 22025U   23281.60584678  .00002984  00000-0  21911-3 0  9997,2 51974  53.0556  35.1986 0001305  93.1420 266.9718 15.06404678 87816,6925.334,95.592,548.103,546.295,0.0
51974.0,STARLINK-3672,PAYLOAD,2023-10-09 08:03:21,15.06392876,0.0001458,53.0556,31.9226,89.7474,270.3682,-8.099e-06,-4.02e-06,0.0,0 STARLINK-3672,1 51974U 22025U   23282.33566846 -.00000402  00000-0 -80990-5 0  9994,2 51974  53.0556  31.9226 0001458  89.7474 270.3682 15.06392876 89015,6925.37,95.593,548.245,546.226,0.0
51974.0,STARLINK-3672,PAYLOAD,2023-10-09 14:25:31,15.06381606,0.0001758,53.057,30.7363,85.9708,274.1482,0.0010315,0.00015108,0.0,0 STARLINK-3672,1 51974U 22025U   23282.60106261  .00015108  00000-0  10315-2 0  9993,2 51974  53.0570  30.7363 0001758  85.9708 274.1482 15.06381606 87962,6925.405,95.593,548.487,546.052,0.0
51974.0,STARLINK-3672,PAYLOAD,2023-10-10 12:43:03,15.06402923,0.0001458,53.0566,26.5641,94.1543,265.9612,0.00012015,1.509e-05,0.0,0 STARLINK-3672,1 51974U 22025U   23283.52990319  .00001509  00000-0  12015-3 0  9990,2 51974  53.0566  26.5641 0001458  94.1543 265.9612 15.06402923 89191,6925.34,95.592,548.214,546.195,0.0
51974.0,STARLINK-3672,PAYLOAD,2023-10-10 14:18:35,15.06408944,0.0001407,53.0565,26.2654,83.4624,276.6525,0.00017511,2.328e-05,0.0,0 STARLINK-3672,1 51974U 22025U   23283.59624698  .00002328  00000-0  17511-3 0  9997,2 51974  53.0565  26.2654 0001407  83.4624 276.6525 15.06408944 88118,6925.321,95.592,548.161,546.212,0.0
51974.0,STARLINK-3672,PAYLOAD,2023-10-11 12:36:09,15.06394497,0.0001469,53.0574,22.0955,94.0266,266.0891,-7.9525e-05,-1.466e-05,0.0,0 STARLINK-3672,1 51974U 22025U   23284.52511291 -.00001466  00000-0 -79525-4 0  9993,2 51974  53.0574  22.0955 0001469  94.0266 266.0891 15.06394497 89346,6925.365,95.592,548.248,546.213,0.0
51974.0,STARLINK-3672,PAYLOAD,2023-10-12 12:29:15,15.06402877,0.0001596,53.0567,17.6282,89.1373,270.9799,0.00014213,1.836e-05,0.0,0 STARLINK-3672,1 51974U 22025U   23285.52031423  .00001836  00000-0  14213-3 0  9999,2 51974  53.0567  17.6282 0001596  89.1373 270.9799 15.06402877 88405,6925.34,95.592,548.31,546.099,0.0
51974.0,STARLINK-3672,PAYLOAD,2023-10-13 12:22:20,15.06403158,0.0001709,53.057,13.1604,96.1207,263.9977,0.00027378,3.799e-05,0.0,0 STARLINK-3672,1 51974U 22025U   23286.51552048  .00003799  00000-0  27378-3 0  9996,2 51974  53.0570  13.1604 0001709  96.1207 263.9977 15.06403158 89648,6925.339,95.592,548.387,546.02,0.0
51974.0,STARLINK-3672,PAYLOAD,2023-10-14 12:15:25,15.06411097,0.0001581,53.0573,8.6922,90.276,269.841,0.00014697,1.909e-05,0.0,0 STARLINK-3672,1 51974U 22025U   23287.51071605  .00001909  00000-0  14697-3 0  9993,2 51974  53.0573   8.6922 0001581  90.2760 269.8410 15.06411097 88704,6925.315,95.591,548.274,546.085,0.0
51974.0,STARLINK-3672,PAYLOAD,2023-10-14 15:26:30,15.06417059,0.0001599,53.0569,8.0941,108.4217,251.6946,0.00019658,2.649e-05,0.0,0 STARLINK-3672,1 51974U 22025U   23287.64340451  .00002649  00000-0  19658-3 0  9999,2 51974  53.0569   8.0941 0001599 108.4217 251.6946 15.06417059 89812,6925.296,95.591,548.269,546.054,0.0
51974.0,STARLINK-3672,PAYLOAD,2023-10-15 12:08:32,15.06383935,0.0001326,53.0555,4.2258,106.1656,253.9479,-0.0001514,-2.535e-05,0.0,0 STARLINK-3672,1 51974U 22025U   23288.50593402 -.00002535  00000-0 -15140-3 0  9999,2 51974  53.0555   4.2258 0001326 106.1656 253.9479 15.06383935 89941,6925.398,95.593,548.181,546.344,0.0
51974.0,STARLINK-3672,PAYLOAD,2023-10-15 21:41:46,15.06392696,0.0001277,53.0559,2.4376,104.121,255.9921,-7.9282e-05,-1.462e-05,0.0,0 STARLINK-3672,1 51974U 22025U   23288.90401242 -.00001462  00000-0 -79282-4 0  9999,2 51974  53.0559   2.4376 0001277 104.1210 255.9921 15.06392696 88919,6925.371,95.593,548.12,546.352,0.0
51974.0,STARLINK-3672,PAYLOAD,2023-10-16 08:50:33,15.06397787,0.0001249,53.0558,0.3526,106.1575,253.9551,0.00012112,1.523e-05,0.0,0 STARLINK-3672,1 51974U 22025U   23289.36844028  .00001523  00000-0  12112-3 0  9997,2 51974  53.0558   0.3526 0001249 106.1575 253.9551 15.06397787 90070,6925.355,95.592,548.085,546.355,0.0
51974.0,STARLINK-3672,PAYLOAD,2023-10-16 12:01:37,15.06403811,0.0001291,53.0546,359.7592,107.6424,252.4706,0.00035229,4.97e-05,0.0,0 STARLINK-3672,1 51974U 22025U   23289.50113301  .00004970  00000-0  35229-3 0  9999,2 51974  53.0546 359.7592 0001291 107.6424 252.4706 15.06403811 89000,6925.337,95.592,548.096,546.308,0.0
51974.0,STARLINK-3672,PAYLOAD,2023-10-17 11:54:43,15.06408047,0.0001396,53.0546,355.2905,103.8081,256.3064,0.00040732,5.792e-05,0.0,0 STARLINK-3672,1 51974U 22025U   23290.49633692  .00005792  00000-0  40732-3 0  9997,2 51974  53.0546 355.2905 0001396 103.8081 256.3064 15.06408047 90246,6925.324,95.592,548.156,546.222,0.0
51974.0,STARLINK-3672,PAYLOAD,2023-10-17 13:30:15,15.06410749,0.0001359,53.0544,354.9923,99.9108,260.2035,0.00046294,6.623e-05,0.0,0 STARLINK-3672,1 51974U 22025U   23290.56268290  .00006623  00000-0  46294-3 0  9996,2 51974  53.0544 354.9923 0001359  99.9108 260.2035 15.06410749 89167,6925.316,95.591,548.122,546.239,0.0
51974.0,STARLINK-3672,PAYLOAD,2023-10-17 23:03:30,15.06405312,0.0001438,53.0552,353.2073,102.4763,257.6387,0.00022791,3.115e-05,0.0,0 STARLINK-3672,1 51974U 22025U   23290.96076431  .00003115  00000-0  22791-3 0  9993,2 51974  53.0552 353.2073 0001438 102.4763 257.6387 15.06405312 89226,6925.332,95.592,548.193,546.201,0.0
51974.0,STARLINK-3672,PAYLOAD,2023-10-18 11:47:48,15.06404921,0.000149,53.0551,350.8242,100.024,260.0917,0.00018599,2.49e-05,0.0,0 STARLINK-3672,1 51974U 22025U   23291.49153793  .00002490  00000-0  18599-3 0  9995,2 51974  53.0551 350.8242 0001490 100.0240 260.0917 15.06404921 90390,6925.333,95.592,548.23,546.167,0.0
51974.0,STARLINK-3672,PAYLOAD,2023-10-18 21:21:03,15.06402341,0.0001506,53.0547,349.0351,92.9516,267.1645,0.00013001,1.656e-05,0.0,0 STARLINK-3672,1 51974U 22025U   23291.88962022  .00001656  00000-0  13001-3 0  9997,2 51974  53.0547 349.0351 0001506  92.9516 267.1645 15.06402341 89364,6925.341,95.592,548.249,546.163,0.0
51974.0,STARLINK-3672,PAYLOAD,2023-10-19 13:16:26,15.06416676,0.0001627,53.0535,346.0562,93.5914,266.5261,0.00056766,8.188e-05,0.0,0 STARLINK-3672,1 51974U 22025U   23292.55308347  .00008188  00000-0  56766-3 0  9998,2 51974  53.0535 346.0562 0001627  93.5914 266.5261 15.06416676 89469,6925.297,95.591,548.289,546.036,0.0
51974.0,STARLINK-3672,PAYLOAD,2023-10-19 21:14:08,15.06403699,0.0001245,53.0554,344.5694,94.7498,265.3633,0.00023322,3.194e-05,0.0,0 STARLINK-3672,1 51974U 22025U   23292.88482011  .00003194  00000-0  23322-3 0  9999,2 51974  53.0554 344.5694 0001245  94.7498 265.3633 15.06403699 89512,6925.337,95.592,548.064,546.34,0.0
51974.0,STARLINK-3672,PAYLOAD,2023-10-20 03:36:18,15.06402452,0.0001951,53.0541,343.377,96.0789,264.0423,0.00025013,3.446e-05,0.0,0 STARLINK-3672,1 51974U 22025U   23293.15020952  .00003446  00000-0  25013-3 0  9991,2 51974  53.0541 343.3770 0001951  96.0789 264.0423 15.06402452 90647,6925.341,95.592,548.557,545.855,0.0
